{
    "links": {
        "self": "http://www.neowsapp.com/rest/v1/neo/54073357?api_key=iIulBulltgU6a56xZRHN4H3l9WmuAYTsLGpBGhQ2"
    },
    "id": "54073357",
    "neo_reference_id": "54073357",
    "name": "(2020 UN)",
    "designation": "2020 UN",
    "nasa_jpl_url": "http://ssd.jpl.nasa.gov/sbdb.cgi?sstr=54073357",
    "absolute_magnitude_h": 26.184,
    "estimated_diameter": {
        "kilometers": {
            "estimated_diameter_min": 0.0154083089,
            "estimated_diameter_max": 0.0344540261
        },
        "meters": {
            "estimated_diameter_min": 15.4083089059,
            "estimated_diameter_max": 34.4540261319
        },
        "miles": {
            "estimated_diameter_min": 0.0095742763,
            "estimated_diameter_max": 0.0214087327
        },
        "feet": {
            "estimated_diameter_min": 50.5521961908,
            "estimated_diameter_max": 113.0381470945
        }
    },
    "is_potentially_hazardous_asteroid": false,
    "close_approach_data": [
        {
            "close_approach_date": "2020-10-17",
            "close_approach_date_full": "2020-Oct-17 18:17",
            "epoch_date_close_approach": 1602958620000,
            "relative_velocity": {
                "kilometers_per_second": "6.4306055843",
                "kilometers_per_hour": "23150.1801036457",
                "miles_per_hour": "14384.6216316237"
            },
            "miss_distance": {
                "astronomical": "0.0684620303",
                "lunar": "26.6317297867",
                "kilometers": "10241773.908755461",
                "miles": "6363943.2069329218"
            },
            "orbiting_body": "Earth"
        }
    ],
    "orbital_data": {
        "orbit_id": "2",
        "orbit_determination_date": "2020-10-23 08:22:26",
        "first_observation_date": "2020-10-14",
        "last_observation_date": "2020-10-23",
        "data_arc_in_days": 9,
        "observations_used": 18,
        "orbit_uncertainty": "8",
        "minimum_orbit_intersection": ".0652126",
        "jupiter_tisserand_invariant": "3.400",
        "epoch_osculation": "2459137.5",
        "eccentricity": ".5339062327389775",
        "semi_major_axis": "2.279356059038893",
        "inclination": "3.663730711407989",
        "ascending_node_longitude": "26.88034586849156",
        "orbital_period": "1256.94618608376",
        "perihelion_distance": "1.062393652486675",
        "perihelion_argument": "354.2031753499696",
        "aphelion_distance": "3.49631846559111",
        "perihelion_time": "2459137.980151753956",
        "mean_anomaly": "359.8624804837805",
        "mean_motion": ".2864084429275719",
        "equinox": "J2000",
        "orbit_class": {
            "orbit_class_type": "AMO",
            "orbit_class_description": "Near-Earth asteroid orbits similar to that of 1221 Amor",
            "orbit_class_range": "1.017 AU < q (perihelion) < 1.3 AU"
        }
    },
    "is_sentry_object": false
}